NORAD_CAT_ID,OBJECT_NAME,OBJECT_TYPE,EPOCH,MEAN_MOTION,ECCENTRICITY,INCLINATION,RA_OF_ASC_NODE,ARG_OF_PERICENTER,MEAN_ANOMALY,BSTAR,MEAN_MOTION_DOT,MEAN_MOTION_DDOT,TLE_LINE0,TLE_LINE1,TLE_LINE2,SEMIMAJOR_AXIS,PERIOD,APOGEE,PERIGEE,DECAYED
53897.0,STARLINK-5035,PAYLOAD,2024-08-08 20:53:56,15.08846905,0.0001302,53.216,38.0393,81.6085,278.5055,6.6321e-05,7.68e-06,0.0,0 STARLINK-5035,1 53897U 22119M   24221.87079836  .00000768  00000-0  66321-4 0  9999,2 53897  53.2160  38.0393 0001302  81.6085 278.5055 15.08846905104037,6917.859,95.437,540.625,538.824,0.0
53897.0,STARLINK-5035,PAYLOAD,2024-08-09 11:12:25,15.08848029,0.0002384,53.2156,35.3689,84.2685,275.8579,0.00010881,1.444e-05,0.0,0 STARLINK-5035,1 53897U 22119M   24222.46696042  .00001444  00000-0  10881-3 0  9990,2 53897  53.2156  35.3689 0002384  84.2685 275.8579 15.08848029104542,6917.856,95.437,541.37,538.072,0.0
53897.0,STARLINK-5035,PAYLOAD,2024-08-09 20:44:44,15.08846991,0.0001198,53.2162,33.5788,112.6962,247.4157,0.00014124,1.961e-05,0.0,0 STARLINK-5035,1 53897U 22119M   24222.86439838  .00001961  00000-0  14124-3 0  9990,2 53897  53.2162  33.5788 0001198 112.6962 247.4157 15.08846991104605,6917.859,95.437,540.553,538.895,0.0
53897.0,STARLINK-5035,PAYLOAD,2024-08-10 11:03:12,15.08848125,0.0001126,53.2166,30.9027,114.1212,245.9899,0.00021194,3.088e-05,0.0,0 STARLINK-5035,1 53897U 22119M   24223.46055634  .00003088  00000-0  21194-3 0  9992,2 53897  53.2166  30.9027 0001126 114.1212 245.9899 15.08848125104272,6917.856,95.437,540.5,538.942,0.0
53897.0,STARLINK-5035,PAYLOAD,2024-08-10 20:35:30,15.08865581,0.0001315,53.2169,29.1192,118.9154,241.197,0.00066594,0.00010334,0.0,0 STARLINK-5035,1 53897U 22119M   24223.85798996  .00010334  00000-0  66594-3 0  9995,2 53897  53.2169  29.1192 0001315 118.9154 241.1970 15.08865581104751,6917.802,95.436,540.577,538.758,0.0
53897.0,STARLINK-5035,PAYLOAD,2024-08-11 10:53:59,15.0881851,0.0001504,53.2173,26.4481,82.4159,277.7004,-0.00080879,-0.00013129,0.0,0 STARLINK-5035,1 53897U 22119M   24224.45416011 -.00013129  00000-0 -80879-3 0  9996,2 53897  53.2173  26.4481 0001504  82.4159 277.7004 15.08818510104424,6917.946,95.439,540.852,538.771,0.0
53897.0,STARLINK-5035,PAYLOAD,2024-08-11 17:15:31,15.08837825,0.0002377,53.2167,25.258,90.3391,269.7873,-9.5908e-05,-1.814e-05,0.0,0 STARLINK-5035,1 53897U 22119M   24224.71911890 -.00001814  00000-0 -95908-4 0  9998,2 53897  53.2167  25.2580 0002377  90.3391 269.7873 15.08837825104468,6917.887,95.438,541.396,538.108,0.0
53897.0,STARLINK-5035,PAYLOAD,2024-08-12 10:44:44,15.08878896,4.27e-05,53.2176,21.9831,120.6403,239.4632,0.0015313,0.00024193,0.0,0 STARLINK-5035,1 53897U 22119M   24225.44774140  .00024193  00000-0  15313-2 0  9997,2 53897  53.2176  21.9831 0000427 120.6403 239.4632 15.08878896104577,6917.762,95.435,539.922,539.331,0.0
53897.0,STARLINK-5035,PAYLOAD,2024-08-12 17:06:17,15.08856771,0.0001692,53.2171,20.7928,96.5768,263.5417,0.00033263,5.012e-05,0.0,0 STARLINK-5035,1 53897U 22119M   24225.71270714  .00005012  00000-0  33263-3 0  9999,2 53897  53.2171  20.7928 0001692  96.5768 263.5417 15.08856771104618,6917.829,95.436,540.865,538.524,0.0
53897.0,STARLINK-5035,PAYLOAD,2024-08-12 21:52:26,15.08857991,4.34e-05,53.2193,19.9031,89.977,270.1272,-2.2015e-05,-6.38e-06,0.0,0 STARLINK-5035,1 53897U 22119M   24225.91142298 -.00000638  00000-0 -22015-4 0  9991,2 53897  53.2193  19.9031 0000434  89.9770 270.1272 15.08857991105067,6917.825,95.436,539.991,539.39,0.0
53897.0,STARLINK-5035,PAYLOAD,2024-08-13 10:35:34,15.08783429,0.0002152,53.2118,17.5217,122.9714,237.1485,-0.0012977,-0.00020851,0.0,0 STARLINK-5035,1 53897U 22119M   24226.44137083 -.00020851  00000-0 -12977-2 0  9999,2 53897  53.2118  17.5217 0002152 122.9714 237.1485 15.08783429104724,6918.053,95.441,541.407,538.43,0.0
53897.0,STARLINK-5035,PAYLOAD,2024-08-13 20:07:54,15.08808139,0.000149,53.2164,15.7411,99.6028,260.5133,0.0014047,0.00022119,0.0,0 STARLINK-5035,1 53897U 22119M   24226.83882452  .00022119  00000-0  14047-2 0  9996,2 53897  53.2164  15.7411 0001490  99.6028 260.5133 15.08808139104785,6917.978,95.44,540.874,538.812,0.0
53897.0,STARLINK-5035,PAYLOAD,2024-08-14 10:26:22,15.08845074,0.0001023,53.2173,13.066,101.8697,258.241,0.0019523,0.00030924,0.0,0 STARLINK-5035,1 53897U 22119M   24227.43498607  .00030924  00000-0  19523-2 0  9995,2 53897  53.2173  13.0660 0001023 101.8697 258.2410 15.08845074104873,6917.865,95.437,540.438,539.022,0.0
53897.0,STARLINK-5035,PAYLOAD,2024-08-14 13:37:08,15.08865554,6.55e-05,53.2176,12.4713,110.9137,249.1925,0.0010004,0.0001568,0.0,0 STARLINK-5035,1 53897U 22119M   24227.56746005  .00015680  00000-0  10004-2 0  9994,2 53897  53.2176  12.4713 0000655 110.9137 249.1925 15.08865554105313,6917.802,95.436,540.12,539.214,0.0
53897.0,STARLINK-5035,PAYLOAD,2024-08-14 16:47:54,15.08887481,7.44e-05,53.2194,11.8772,120.1584,239.9482,0.00041348,6.307e-05,0.0,0 STARLINK-5035,1 53897U 22119M   24227.69993211  .00006307  00000-0  41348-3 0  9993,2 53897  53.2194  11.8772 0000744 120.1584 239.9482 15.08887481104912,6917.735,95.435,540.115,539.086,0.0
53897.0,STARLINK-5035,PAYLOAD,2024-08-15 16:38:40,15.08876978,0.0001233,53.2176,7.4173,93.2799,266.8335,0.00125,0.00019682,0.0,0 STARLINK-5035,1 53897U 22119M   24228.69352424  .00019682  00000-0  12500-2 0  9996,2 53897  53.2176   7.4173 0001233  93.2799 266.8335 15.08876978105062,6917.767,95.435,540.485,538.779,0.0
53897.0,STARLINK-5035,PAYLOAD,2024-08-16 02:10:58,15.08866137,8e-06,53.217,5.6323,20.8754,339.2241,0.00091497,0.00014314,0.0,0 STARLINK-5035,1 53897U 22119M   24229.09095805  .00014314  00000-0  91497-3 0  9998,2 53897  53.2170   5.6323 0000080  20.8754 339.2241 15.08866137105123,6917.8,95.436,539.721,539.61,0.0
53897.0,STARLINK-5035,PAYLOAD,2024-08-17 08:23:19,15.08863976,0.0003374,53.2173,359.9805,81.4904,278.6471,0.0010612,0.00016653,0.0,0 STARLINK-5035,1 53897U 22119M   24230.34952744  .00016653  00000-0  10612-2 0  9999,2 53897  53.2173 359.9805 0003374  81.4904 278.6471 15.08863976105315,6917.807,95.436,542.006,537.338,0.0
53897.0,STARLINK-5035,PAYLOAD,2024-08-18 13:00:16,15.08832369,0.0001255,53.2178,354.6297,26.0063,334.0992,0.00018505,2.658e-05,0.0,0 STARLINK-5035,1 53897U 22119M   24231.54185393  .00002658  00000-0  18505-3 0  9990,2 53897  53.2178 354.6297 0001255  26.0063 334.0992 15.08832369105490,6917.904,95.438,540.637,538.901,0.0
53897.0,STARLINK-5035,PAYLOAD,2024-08-18 14:35:39,15.08838089,0.0001148,53.2184,354.3346,86.2924,273.8199,0.00014582,2.034e-05,0.0,0 STARLINK-5035,1 53897U 22119M   24231.60809048  .00002034  00000-0  14582-3 0  9996,2 53897  53.2184 354.3346 0001148  86.2924 273.8199 15.08838089105500,6917.886,95.438,540.545,538.957,0.0
53897.0,STARLINK-5035,PAYLOAD,2024-08-19 14:26:26,15.08833439,0.0001168,53.2182,349.8731,97.9503,262.1622,0.00016233,2.296e-05,0.0,0 STARLINK-5035,1 53897U 22119M   24232.60169807  .00002296  00000-0  16233-3 0  9994,2 53897  53.2182 349.8731 0001168  97.9503 262.1622 15.08833439106078,6917.9,95.438,540.573,538.957,0.0
53897.0,STARLINK-5035,PAYLOAD,2024-08-19 17:37:13,15.08833282,0.0001271,53.2179,349.2777,103.3174,256.796,0.00015494,2.178e-05,0.0,0 STARLINK-5035,1 53897U 22119M   24232.73417879  .00002178  00000-0  15494-3 0  9990,2 53897  53.2179 349.2777 0001271 103.3174 256.7960 15.08833282105674,6917.901,95.438,540.645,538.887,0.0
53897.0,STARLINK-5035,PAYLOAD,2024-08-20 14:17:13,15.08846557,0.0001647,53.2189,345.4137,105.0819,255.0356,0.00017463,2.493e-05,0.0,0 STARLINK-5035,1 53897U 22119M   24233.59529540  .00002493  00000-0  17463-3 0  9992,2 53897  53.2189 345.4137 0001647 105.0819 255.0356 15.08846557106227,6917.86,95.437,540.865,538.586,0.0
53897.0,STARLINK-5035,PAYLOAD,2024-08-20 17:27:59,15.08852537,0.0001453,53.218,344.8141,114.8277,245.2867,0.00021421,3.124e-05,0.0,0 STARLINK-5035,1 53897U 22119M   24233.72777072  .00003124  00000-0  21421-3 0  9993,2 53897  53.2180 344.8141 0001453 114.8277 245.2867 15.08852537105825,6917.842,95.437,540.712,538.702,0.0
53897.0,STARLINK-5035,PAYLOAD,2024-08-21 12:32:38,15.08828342,0.0001338,53.2177,341.2501,69.4921,290.6215,9.6563e-06,-1.34e-06,0.0,0 STARLINK-5035,1 53897U 22119M   24234.52266644 -.00000134  00000-0  96563-5 0  9990,2 53897  53.2177 341.2501 0001338  69.4921 290.6215 15.08828342105946,6917.916,95.438,540.707,538.855,0.0
53897.0,STARLINK-5035,PAYLOAD,2024-08-21 14:08:01,15.08831029,0.0001469,53.2188,340.9522,94.5103,265.6057,5.8162e-05,6.38e-06,0.0,0 STARLINK-5035,1 53897U 22119M   24234.58890517  .00000638  00000-0  58162-4 0  9998,2 53897  53.2188 340.9522 0001469  94.5103 265.6057 15.08831029106373,6917.908,95.438,540.789,538.757,0.0
